{
  "type": "FeatureCollection",
  "features": [
    {
      "type": "Feature",
      "properties": {
        "norad_id": 44231,
        "name": "BEIDOU-2 G8 (C01)",
        "group": "gnss",
        "lat": -1.1304715333001472,
        "lon": -64.25745493847278,
        "alt_km": 35757.75483804636,
        "timestamp": "2025-12-24T03:53:29.891421+00:00",
        "meta_object_name": "BEIDOU-2 G8 (C01)",
        "meta_object_id": "2019-027A",
        "meta_epoch": "2025-12-23T20:40:01.141248",
        "meta_mean_motion": 1.0027506,
        "meta_eccentricity": 0.0008301,
        "meta_inclination": 1.6883,
        "meta_ra_of_asc_node": 74.7343,
        "meta_arg_of_pericenter": 259.1032,
        "meta_mean_anomaly": 213.3102,
        "meta_ephemeris_type": 0,
        "meta_classification_type": "U",
        "meta_norad_cat_id": 44231,
        "meta_element_set_no": 999,
        "meta_rev_at_epoch": 2432,
        "meta_bstar": 0,
        "meta_mean_motion_dot": -2.26e-06,
        "meta_mean_motion_ddot": 0,
        "tle_line1": "1 44231U 19027A   25357.86112432 -.00000226  00000+0  00000+0 0  9991",
        "tle_line2": "2 44231   1.6883  74.7343 0008301 259.1032 213.3102  1.00275060 24328"
      },
      "geometry": {
        "type": "Point",
        "coordinates": [
          -64.25745493847278,
          -1.1304715333001472
        ]
      }
    },
    {
      "type": "Feature",
      "properties": {
        "norad_id": 44299,
        "name": "COSMOS 2534 (758)",
        "group": "gnss",
        "lat": 30.691669475415747,
        "lon": 1.94486726383015,
        "alt_km": 19142.845353879755,
        "timestamp": "2025-12-24T03:53:29.891433+00:00",
        "meta_object_name": "COSMOS 2534 (758)",
        "meta_object_id": "2019-030A",
        "meta_epoch": "2025-12-23T06:38:38.752224",
        "meta_mean_motion": 2.13102317,
        "meta_eccentricity": 0.00086492,
        "meta_inclination": 64.3662,
        "meta_ra_of_asc_node": 198.5378,
        "meta_arg_of_pericenter": 283.8843,
        "meta_mean_anomaly": 262.5113,
        "meta_ephemeris_type": 0,
        "meta_classification_type": "U",
        "meta_norad_cat_id": 44299,
        "meta_element_set_no": 999,
        "meta_rev_at_epoch": 5117,
        "meta_bstar": 0,
        "meta_mean_motion_dot": 9.5e-07,
        "meta_mean_motion_ddot": 0,
        "tle_line1": "1 44299U 19030A   25357.27683741  .00000095  00000+0  00000+0 0  9993",
        "tle_line2": "2 44299  64.3662 198.5378 0008649 283.8843 262.5113  2.13102317 51175"
      },
      "geometry": {
        "type": "Point",
        "coordinates": [
          1.94486726383015,
          30.691669475415747
        ]
      }
    },
    {
      "type": "Feature",
      "properties": {
        "norad_id": 44337,
        "name": "BEIDOU-3 IGSO-2 (C39)",
        "group": "gnss",
        "lat": 50.53519196394694,
        "lon": -77.2386441391538,
        "alt_km": 35788.05577766032,
        "timestamp": "2025-12-24T03:53:29.891445+00:00",
        "meta_object_name": "BEIDOU-3 IGSO-2 (C39)",
        "meta_object_id": "2019-035A",
        "meta_epoch": "2025-12-23T20:34:24.431808",
        "meta_mean_motion": 1.00267916,
        "meta_eccentricity": 0.0037802,
        "meta_inclination": 55.2291,
        "meta_ra_of_asc_node": 160.4037,
        "meta_arg_of_pericenter": 202.4581,
        "meta_mean_anomaly": 157.7229,
        "meta_ephemeris_type": 0,
        "meta_classification_type": "U",
        "meta_norad_cat_id": 44337,
        "meta_element_set_no": 999,
        "meta_rev_at_epoch": 2391,
        "meta_bstar": 0,
        "meta_mean_motion_dot": -7.4e-07,
        "meta_mean_motion_ddot": 0,
        "tle_line1": "1 44337U 19035A   25357.85722722 -.00000074  00000+0  00000+0 0  9996",
        "tle_line2": "2 44337  55.2291 160.4037 0037802 202.4581 157.7229  1.00267916 23910"
      },
      "geometry": {
        "type": "Point",
        "coordinates": [
          -77.2386441391538,
          50.53519196394694
        ]
      }
    },
    {
      "type": "Feature",
      "properties": {
        "norad_id": 44506,
        "name": "GPS BIII-2  (PRN 18)",
        "group": "gnss",
        "lat": 6.718778899974833,
        "lon": -17.306232129466473,
        "alt_km": 20331.86424581206,
        "timestamp": "2025-12-24T03:53:29.891457+00:00",
        "meta_object_name": "GPS BIII-2  (PRN 18)",
        "meta_object_id": "2019-056A",
        "meta_epoch": "2025-12-23T03:47:40.057728",
        "meta_mean_motion": 2.00566586,
        "meta_eccentricity": 0.0057745,
        "meta_inclination": 55.7177,
        "meta_ra_of_asc_node": 338.1397,
        "meta_arg_of_pericenter": 198.5953,
        "meta_mean_anomaly": 164.4501,
        "meta_ephemeris_type": 0,
        "meta_classification_type": "U",
        "meta_norad_cat_id": 44506,
        "meta_element_set_no": 999,
        "meta_rev_at_epoch": 4654,
        "meta_bstar": 0,
        "meta_mean_motion_dot": -6.4e-07,
        "meta_mean_motion_ddot": 0,
        "tle_line1": "1 44506U 19056A   25357.15810252 -.00000064  00000+0  00000+0 0  9995",
        "tle_line2": "2 44506  55.7177 338.1397 0057745 198.5953 164.4501  2.00566586 46543"
      },
      "geometry": {
        "type": "Point",
        "coordinates": [
          -17.306232129466473,
          6.718778899974833
        ]
      }
    },
    {
      "type": "Feature",
      "properties": {
        "norad_id": 44542,
        "name": "BEIDOU-3 M24 (C46)",
        "group": "gnss",
        "lat": -17.80129760831545,
        "lon": 175.3284961685984,
        "alt_km": 21512.811811558353,
        "timestamp": "2025-12-24T03:53:29.891468+00:00",
        "meta_object_name": "BEIDOU-3 M24 (C46)",
        "meta_object_id": "2019-061A",
        "meta_epoch": "2025-12-23T15:47:40.430112",
        "meta_mean_motion": 1.86229437,
        "meta_eccentricity": 0.0009591,
        "meta_inclination": 54.4006,
        "meta_ra_of_asc_node": 188.6475,
        "meta_arg_of_pericenter": 26.0313,
        "meta_mean_anomaly": 334.0556,
        "meta_ephemeris_type": 0,
        "meta_classification_type": "U",
        "meta_norad_cat_id": 44542,
        "meta_element_set_no": 999,
        "meta_rev_at_epoch": 4252,
        "meta_bstar": 0,
        "meta_mean_motion_dot": 9.9e-07,
        "meta_mean_motion_ddot": 0,
        "tle_line1": "1 44542U 19061A   25357.65810683  .00000099  00000+0  00000+0 0  9991",
        "tle_line2": "2 44542  54.4006 188.6475 0009591  26.0313 334.0556  1.86229437 42529"
      },
      "geometry": {
        "type": "Point",
        "coordinates": [
          175.3284961685984,
          -17.80129760831545
        ]
      }
    },
    {
      "type": "Feature",
      "properties": {
        "norad_id": 44543,
        "name": "BEIDOU-3 M23 (C45)",
        "group": "gnss",
        "lat": -50.078044351008636,
        "lon": 67.53870864999662,
        "alt_km": 21546.028210083394,
        "timestamp": "2025-12-24T03:53:29.891480+00:00",
        "meta_object_name": "BEIDOU-3 M23 (C45)",
        "meta_object_id": "2019-061B",
        "meta_epoch": "2025-12-22T04:16:38.631360",
        "meta_mean_motion": 1.86227761,
        "meta_eccentricity": 0.00060882,
        "meta_inclination": 54.3995,
        "meta_ra_of_asc_node": 188.6659,
        "meta_arg_of_pericenter": 26.1092,
        "meta_mean_anomaly": 334.4978,
        "meta_ephemeris_type": 0,
        "meta_classification_type": "U",
        "meta_norad_cat_id": 44543,
        "meta_element_set_no": 999,
        "meta_rev_at_epoch": 4250,
        "meta_bstar": 0,
        "meta_mean_motion_dot": 9.4e-07,
        "meta_mean_motion_ddot": 0,
        "tle_line1": "1 44543U 19061B   25356.17822490  .00000094  00000+0  00000+0 0  9992",
        "tle_line2": "2 44543  54.3995 188.6659 0006088  26.1092 334.4978  1.86227761 42501"
      },
      "geometry": {
        "type": "Point",
        "coordinates": [
          67.53870864999662,
          -50.078044351008636
        ]
      }
    },
    {
      "type": "Feature",
      "properties": {
        "norad_id": 44624,
        "name": "EUTELSAT 5 WEST B (EGNOS/PRN 121)",
        "group": "gnss",
        "lat": 0.0304606861009847,
        "lon": 146.28258354488463,
        "alt_km": 35793.75661621929,
        "timestamp": "2025-12-24T03:53:29.891492+00:00",
        "meta_object_name": "EUTELSAT 5 WEST B (EGNOS/PRN 121)",
        "meta_object_id": "2019-067A",
        "meta_epoch": "2025-12-23T18:14:37.416192",
        "meta_mean_motion": 1.00271346,
        "meta_eccentricity": 0.0003078,
        "meta_inclination": 0.0642,
        "meta_ra_of_asc_node": 341.4423,
        "meta_arg_of_pericenter": 290.2674,
        "meta_mean_anomaly": 89.4941,
        "meta_ephemeris_type": 0,
        "meta_classification_type": "U",
        "meta_norad_cat_id": 44624,
        "meta_element_set_no": 999,
        "meta_rev_at_epoch": 2267,
        "meta_bstar": 0,
        "meta_mean_motion_dot": -2.1e-07,
        "meta_mean_motion_ddot": 0,
        "tle_line1": "1 44624U 19067A   25357.76015528 -.00000021  00000+0  00000+0 0  9991",
        "tle_line2": "2 44624   0.0642 341.4423 0003078 290.2674  89.4941  1.00271346 22679"
      },
      "geometry": {
        "type": "Point",
        "coordinates": [
          146.28258354488463,
          0.0304606861009847
        ]
      }
    }
  ]
}